{"type": "FeatureCollection", "features": [ {"type": "Feature", "properties": {"norad_id": 30690, "name": "FENGYUN 1C DEB", "group": "fengyun-1c-debris", "lat": -79.6385917158545, "lon": 46.75942120946435, "alt_km": 950.5262387396624, "timestamp": "2025-12-24T05:51:19.886545+00:00", "meta": {"OBJECT_NAME": "FENGYUN 1C DEB", "OBJECT_ID": "1999-025AQY", "EPOCH": "2025-12-23T14:02:14.507232", "MEAN_MOTION": 14.02371213, "ECCENTRICITY": 0.01049916, "INCLINATION": 99.1598, "RA_OF_ASC_NODE": 288.0365, "ARG_OF_PERICENTER": 46.4228, "MEAN_ANOMALY": 133.875, "EPHEMERIS_TYPE": 0, "CLASSIFICATION_TYPE": "U", "NORAD_CAT_ID": 30690, "ELEMENT_SET_NO": 999, "REV_AT_EPOCH": 95859, "BSTAR": 0.0015768861, "MEAN_MOTION_DOT": 2.496e-05, "MEAN_MOTION_DDOT": 0}, "tle": {"line1": "1 30690U 99025AQY 25357.58489013  .00002496  00000+0  15769-2 0  9993", "line2": "2 30690  99.1598 288.0365 0104991  46.4228 133.8750 14.02371213958590"}}, "geometry": {"type": "Point", "coordinates": [46.75942120946435, -79.6385917158545]}}, {"type": "Feature", "properties": {"norad_id": 30691, "name": "FENGYUN 1C DEB", "group": "fengyun-1c-debris", "lat": 80.74460165247933, "lon": -61.83225480596693, "alt_km": 964.3728249840706, "timestamp": "2025-12-24T05:51:19.886555+00:00", "meta": {"OBJECT_NAME": "FENGYUN 1C DEB", "OBJECT_ID": "1999-025AQZ", "EPOCH": "2025-12-23T00:23:10.768704", "MEAN_MOTION": 13.89460999, "ECCENTRICITY": 0.01395732, "INCLINATION": 98.7428, "RA_OF_ASC_NODE": 7.8021, "ARG_OF_PERICENTER": 204.9408, "MEAN_ANOMALY": 224.8991, "EPHEMERIS_TYPE": 0, "CLASSIFICATION_TYPE": "U", "NORAD_CAT_ID": 30691, "ELEMENT_SET_NO": 999, "REV_AT_EPOCH": 95259, "BSTAR": 0.00090091603, "MEAN_MOTION_DOT": 1.149e-05, "MEAN_MOTION_DDOT": 0}, "tle": {"line1": "1 30691U 99025AQZ 25357.01609686  .00001149  00000+0  90092-3 0  9999", "line2": "2 30691  98.7428   7.8021 0139573 204.9408 224.8991 13.89460999952595"}}, "geometry": {"type": "Point", "coordinates": [-61.83225480596693, 80.74460165247933]}}, {"type": "Feature", "properties": {"norad_id": 30693, "name": "FENGYUN 1C DEB", "group": "fengyun-1c-debris", "lat": 68.92138916649508, "lon": -173.5934464553322, "alt_km": 821.9237060169326, "timestamp": "2025-12-24T05:51:19.886565+00:00", "meta": {"OBJECT_NAME": "FENGYUN 1C DEB", "OBJECT_ID": "1999-025ARB", "EPOCH": "2025-12-23T22:32:40.187328", "MEAN_MOTION": 14.13298775, "ECCENTRICITY": 0.00297993, "INCLINATION": 98.6876, "RA_OF_ASC_NODE": 342.7399, "ARG_OF_PERICENTER": 135.5765, "MEAN_ANOMALY": 224.7806, "EPHEMERIS_TYPE": 0, "CLASSIFICATION_TYPE": "U", "NORAD_CAT_ID": 30693, "ELEMENT_SET_NO": 999, "REV_AT_EPOCH": 97093, "BSTAR": 0.0002694808, "MEAN_MOTION_DOT": 4.65e-06, "MEAN_MOTION_DDOT": 0}, "tle": {"line1": "1 30693U 99025ARB 25357.93935402  .00000465  00000+0  26948-3 0  9999", "line2": "2 30693  98.6876 342.7399 0029799 135.5765 224.7806 14.13298775970936"}}, "geometry": {"type": "Point", "coordinates": [-173.5934464553322, 68.92138916649508]}}, {"type": "Feature", "properties": {"norad_id": 30694, "name": "FENGYUN 1C DEB", "group": "fengyun-1c-debris", "lat": 24.52833359535438, "lon": 150.1985728394601, "alt_km": 626.2422400857595, "timestamp": "2025-12-24T05:51:19.886578+00:00", "meta": {"OBJECT_NAME": "FENGYUN 1C DEB", "OBJECT_ID": "1999-025ARC", "EPOCH": "2025-12-23T21:04:17.293152", "MEAN_MOTION": 14.86767277, "ECCENTRICITY": 0.01293594, "INCLINATION": 99.0494, "RA_OF_ASC_NODE": 325.6114, "ARG_OF_PERICENTER": 258.9799, "MEAN_ANOMALY": 99.684, "EPHEMERIS_TYPE": 0, "CLASSIFICATION_TYPE": "U", "NORAD_CAT_ID": 30694, "ELEMENT_SET_NO": 999, "REV_AT_EPOCH": 261, "BSTAR": 0.0012632294, "MEAN_MOTION_DOT": 0.0001305, "MEAN_MOTION_DDOT": 0}, "tle": {"line1": "1 30694U 99025ARC 25357.87797793  .00013050  00000+0  12632-2 0  9990", "line2": "2 30694  99.0494 325.6114 0129359 258.9799  99.6840 14.86767277  2619"}}, "geometry": {"type": "Point", "coordinates": [150.1985728394601, 24.52833359535438]}}, {"type": "Feature", "properties": {"norad_id": 30696, "name": "FENGYUN 1C DEB", "group": "fengyun-1c-debris", "lat": 13.041122237220108, "lon": -130.92700501714216, "alt_km": 727.0899266906381, "timestamp": "2025-12-24T05:51:19.886588+00:00", "meta": {"OBJECT_NAME": "FENGYUN 1C DEB", "OBJECT_ID": "1999-025ARE", "EPOCH": "2025-12-23T21:36:29.069280", "MEAN_MOTION": 14.44821784, "ECCENTRICITY": 0.00895553, "INCLINATION": 98.3874, "RA_OF_ASC_NODE": 46.7754, "ARG_OF_PERICENTER": 92.3578, "MEAN_ANOMALY": 86.9777, "EPHEMERIS_TYPE": 0, "CLASSIFICATION_TYPE": "U", "NORAD_CAT_ID": 30696, "ELEMENT_SET_NO": 999, "REV_AT_EPOCH": 98465, "BSTAR": 0.00081849663, "MEAN_MOTION_DOT": 2.944e-05, "MEAN_MOTION_DDOT": 0}, "tle": {"line1": "1 30696U 99025ARE 25357.90033645  .00002944  00000+0  81850-3 0  9994", "line2": "2 30696  98.3874  46.7754 0089555  92.3578  86.9777 14.44821784984653"}}, "geometry": {"type": "Point", "coordinates": [-130.92700501714216, 13.041122237220108]}}, {"type": "Feature", "properties": {"norad_id": 30697, "name": "FENGYUN 1C DEB", "group": "fengyun-1c-debris", "lat": 78.47596138642143, "lon": 4.7722131400796375, "alt_km": 818.0362783991095, "timestamp": "2025-12-24T05:51:19.886598+00:00", "meta": {"OBJECT_NAME": "FENGYUN 1C DEB", "OBJECT_ID": "1999-025ARF", "EPOCH": "2025-12-22T02:39:29.097216", "MEAN_MOTION": 14.13570232, "ECCENTRICITY": 0.00880923, "INCLINATION": 98.9054, "RA_OF_ASC_NODE": 52.913, "ARG_OF_PERICENTER": 159.2131, "MEAN_ANOMALY": 234.7348, "EPHEMERIS_TYPE": 0, "CLASSIFICATION_TYPE": "U", "NORAD_CAT_ID": 30697, "ELEMENT_SET_NO": 999, "REV_AT_EPOCH": 96393, "BSTAR": 0.001445615, "MEAN_MOTION_DOT": 2.784e-05, "MEAN_MOTION_DDOT": 0}, "tle": {"line1": "1 30697U 99025ARF 25356.11075344  .00002784  00000+0  14456-2 0  9998", "line2": "2 30697  98.9054  52.9130 0088092 159.2131 234.7348 14.13570232963930"}}, "geometry": {"type": "Point", "coordinates": [4.7722131400796375, 78.47596138642143]}}, {"type": "Feature", "properties": {"norad_id": 30699, "name": "FENGYUN 1C DEB", "group": "fengyun-1c-debris", "lat": 22.22338767829857, "lon": -57.294819200657855, "alt_km": 733.4097203160645, "timestamp": "2025-12-24T05:51:19.886608+00:00", "meta": {"OBJECT_NAME": "FENGYUN 1C DEB", "OBJECT_ID": "1999-025ARH", "EPOCH": "2025-12-22T06:39:57.182688", "MEAN_MOTION": 14.47072256, "ECCENTRICITY": 0.00047761, "INCLINATION": 99.3126, "RA_OF_ASC_NODE": 116.7003, "ARG_OF_PERICENTER": 229.4361, "MEAN_ANOMALY": 130.6413, "EPHEMERIS_TYPE": 0, "CLASSIFICATION_TYPE": "U", "NORAD_CAT_ID": 30699, "ELEMENT_SET_NO": 999, "REV_AT_EPOCH": 97751, "BSTAR": 0.0023256985, "MEAN_MOTION_DOT": 8.431e-05, "MEAN_MOTION_DDOT": 0}, "tle": {"line1": "1 30699U 99025ARH 25356.27774517  .00008431  00000+0  23257-2 0  9999", "line2": "2 30699  99.3126 116.7003 0004776 229.4361 130.6413 14.47072256977513"}}, "geometry": {"type": "Point", "coordinates": [-57.294819200657855, 22.22338767829857]}}, {"type": "Feature", "properties": {"norad_id": 30700, "name": "FENGYUN 1C DEB", "group": "fengyun-1c-debris", "lat": 7.656821142579723, "lon": 25.071530023852056, "alt_km": 827.2192169943746, "timestamp": "2025-12-24T05:51:19.886618+00:00", "meta": {"OBJECT_NAME": "FENGYUN 1C DEB", "OBJECT_ID": "1999-025ARJ", "EPOCH": "2025-12-23T19:41:58.362432", "MEAN_MOTION": 14.2380331, "ECCENTRICITY": 0.00874009, "INCLINATION": 98.5405, "RA_OF_ASC_NODE": 25.8181, "ARG_OF_PERICENTER": 111.3547, "MEAN_ANOMALY": 249.6988, "EPHEMERIS_TYPE": 0, "CLASSIFICATION_TYPE": "U", "NORAD_CAT_ID": 30700, "ELEMENT_SET_NO": 999, "REV_AT_EPOCH": 97727, "BSTAR": 0.00015987414, "MEAN_MOTION_DOT": 3.39e-06, "MEAN_MOTION_DDOT": 0}, "tle": {"line1": "1 30700U 99025ARJ 25357.82081438  .00000339  00000+0  15987-3 0  9998", "line2": "2 30700  98.5405  25.8181 0087400 111.3547 249.6988 14.23803310977272"}}, "geometry": {"type": "Point", "coordinates": [25.071530023852056, 7.656821142579723]}}, {"type": "Feature", "properties": {"norad_id": 30701, "name": "FENGYUN 1C DEB", "group": "fengyun-1c-debris", "lat": -24.26885668378728, "lon": 43.223845891738854, "alt_km": 853.7121451452804, "timestamp": "2025-12-24T05:51:19.886629+00:00", "meta": {"OBJECT_NAME": "FENGYUN 1C DEB", "OBJECT_ID": "1999-025ARK", "EPOCH": "2025-12-23T20:02:37.619232", "MEAN_MOTION": 14.13935341, "ECCENTRICITY": 0.003569, "INCLINATION": 98.7167, "RA_OF_ASC_NODE": 38.8589, "ARG_OF_PERICENTER": 72.0443, "MEAN_ANOMALY": 344.0933, "EPHEMERIS_TYPE": 0, "CLASSIFICATION_TYPE": "U", "NORAD_CAT_ID": 30701, "ELEMENT_SET_NO": 999, "REV_AT_EPOCH": 97276, "BSTAR": 1.8014891e-05, "MEAN_MOTION_DOT": -8e-08, "MEAN_MOTION_DDOT": 0}, "tle": {"line1": "1 30701U 99025ARK 25357.83515763 -.00000008  00000+0  18015-4 0  9993", "line2": "2 30701  98.7167  38.8589 0035690  72.0443 344.0933 14.13935341972766"}}, "geometry": {"type": "Point", "coordinates": [43.223845891738854, -24.26885668378728]}}, {"type": "Feature", "properties": {"norad_id": 30702, "name": "FENGYUN 1C DEB", "group": "fengyun-1c-debris", "lat": -31.314394456166312, "lon": -167.71333311603198, "alt_km": 860.1640200923039, "timestamp": "2025-12-24T05:51:19.886638+00:00", "meta": {"OBJECT_NAME": "FENGYUN 1C DEB", "OBJECT_ID": "1999-025ARL", "EPOCH": "2025-12-22T19:28:57.455040", "MEAN_MOTION": 14.03619429, "ECCENTRICITY": 0.00690064, "INCLINATION": 98.7689, "RA_OF_ASC_NODE": 16.2935, "ARG_OF_PERICENTER": 273.2567, "MEAN_ANOMALY": 266.0605, "EPHEMERIS_TYPE": 0, "CLASSIFICATION_TYPE": "U", "NORAD_CAT_ID": 30702, "ELEMENT_SET_NO": 999, "REV_AT_EPOCH": 96303, "BSTAR": 0.00089765671, "MEAN_MOTION_DOT": 1.397e-05, "MEAN_MOTION_DDOT": 0}, "tle": {"line1": "1 30702U 99025ARL 25356.81177610  .00001397  00000+0  89766-3 0  9997", "line2": "2 30702  98.7689  16.2935 0069006 273.2567 266.0605 14.03619429963035"}}, "geometry": {"type": "Point", "coordinates": [-167.71333311603198, -31.314394456166312]}}]}